{
  "type": "FeatureCollection",
  "features": [
    {
      "type": "Feature",
      "properties": {
        "norad_id": 31913,
        "name": "FENGYUN 1C DEB",
        "group": "fengyun-1c-debris",
        "lat": 8.666244970275386,
        "lon": -81.2626608983757,
        "alt_km": 919.4097091291023,
        "timestamp": "2025-12-25T03:55:56.642917+00:00",
        "meta_object_name": "FENGYUN 1C DEB",
        "meta_object_id": "1999-025CLQ",
        "meta_epoch": "2025-12-21T13:35:55.011552",
        "meta_mean_motion": 13.91334428,
        "meta_eccentricity": 0.02035944,
        "meta_inclination": 99.2944,
        "meta_ra_of_asc_node": 276.5642,
        "meta_arg_of_pericenter": 289.7346,
        "meta_mean_anomaly": 68.1956,
        "meta_ephemeris_type": 0,
        "meta_classification_type": "U",
        "meta_norad_cat_id": 31913,
        "meta_element_set_no": 999,
        "meta_rev_at_epoch": 56009,
        "meta_bstar": 0.0067883601,
        "meta_mean_motion_dot": 0.00010105,
        "meta_mean_motion_ddot": 0,
        "tle_line1": "1 31913U 99025CLQ 25355.56660893  .00010105  00000+0  67884-2 0  9996",
        "tle_line2": "2 31913  99.2944 276.5642 0203594 289.7346  68.1956 13.91334428560093"
      },
      "geometry": {
        "type": "Point",
        "coordinates": [
          -81.2626608983757,
          8.666244970275386
        ]
      }
    },
    {
      "type": "Feature",
      "properties": {
        "norad_id": 31914,
        "name": "FENGYUN 1C DEB",
        "group": "fengyun-1c-debris",
        "lat": 14.95347774928478,
        "lon": 45.640432833433664,
        "alt_km": 794.7429078444538,
        "timestamp": "2025-12-25T03:55:56.642926+00:00",
        "meta_object_name": "FENGYUN 1C DEB",
        "meta_object_id": "1999-025CLR",
        "meta_epoch": "2025-12-24T13:59:36.612960",
        "meta_mean_motion": 14.55730116,
        "meta_eccentricity": 0.0182719,
        "meta_inclination": 99.0256,
        "meta_ra_of_asc_node": 222.5796,
        "meta_arg_of_pericenter": 33.5539,
        "meta_mean_anomaly": 327.7073,
        "meta_ephemeris_type": 0,
        "meta_classification_type": "U",
        "meta_norad_cat_id": 31914,
        "meta_element_set_no": 999,
        "meta_rev_at_epoch": 68645,
        "meta_bstar": 0.00015271,
        "meta_mean_motion_dot": 7.72e-06,
        "meta_mean_motion_ddot": 0,
        "tle_line1": "1 31914U 99025CLR 25358.58306265  .00000772  00000+0  15271-3 0  9995",
        "tle_line2": "2 31914  99.0256 222.5796 0182719  33.5539 327.7073 14.55730116686451"
      },
      "geometry": {
        "type": "Point",
        "coordinates": [
          45.640432833433664,
          14.95347774928478
        ]
      }
    },
    {
      "type": "Feature",
      "properties": {
        "norad_id": 31915,
        "name": "FENGYUN 1C DEB",
        "group": "fengyun-1c-debris",
        "lat": 48.904137576821675,
        "lon": 6.581955860277492,
        "alt_km": 906.4543077887847,
        "timestamp": "2025-12-25T03:55:56.642942+00:00",
        "meta_object_name": "FENGYUN 1C DEB",
        "meta_object_id": "1999-025CLS",
        "meta_epoch": "2025-12-23T07:36:34.101504",
        "meta_mean_motion": 14.16243612,
        "meta_eccentricity": 0.01012431,
        "meta_inclination": 98.631,
        "meta_ra_of_asc_node": 14.82,
        "meta_arg_of_pericenter": 239.493,
        "meta_mean_anomaly": 119.6219,
        "meta_ephemeris_type": 0,
        "meta_classification_type": "U",
        "meta_norad_cat_id": 31915,
        "meta_element_set_no": 999,
        "meta_rev_at_epoch": 64257,
        "meta_bstar": 0.00069007122,
        "meta_mean_motion_dot": 1.394e-05,
        "meta_mean_motion_ddot": 0,
        "tle_line1": "1 31915U 99025CLS 25357.31706136  .00001394  00000+0  69007-3 0  9994",
        "tle_line2": "2 31915  98.6310  14.8200 0101243 239.4930 119.6219 14.16243612642577"
      },
      "geometry": {
        "type": "Point",
        "coordinates": [
          6.581955860277492,
          48.904137576821675
        ]
      }
    },
    {
      "type": "Feature",
      "properties": {
        "norad_id": 31916,
        "name": "FENGYUN 1C DEB",
        "group": "fengyun-1c-debris",
        "lat": -76.20870933738432,
        "lon": -136.7524383065354,
        "alt_km": 889.0049774471163,
        "timestamp": "2025-12-25T03:55:56.642955+00:00",
        "meta_object_name": "FENGYUN 1C DEB",
        "meta_object_id": "1999-025CLT",
        "meta_epoch": "2025-12-20T12:05:47.200128",
        "meta_mean_motion": 14.32566487,
        "meta_eccentricity": 0.01459244,
        "meta_inclination": 99.3299,
        "meta_ra_of_asc_node": 80.2819,
        "meta_arg_of_pericenter": 74.2025,
        "meta_mean_anomaly": 287.5191,
        "meta_ephemeris_type": 0,
        "meta_classification_type": "U",
        "meta_norad_cat_id": 31916,
        "meta_element_set_no": 999,
        "meta_rev_at_epoch": 64638,
        "meta_bstar": 0.00080279235,
        "meta_mean_motion_dot": 2.399e-05,
        "meta_mean_motion_ddot": 0,
        "tle_line1": "1 31916U 99025CLT 25354.50401852  .00002399  00000+0  80279-3 0  9990",
        "tle_line2": "2 31916  99.3299  80.2819 0145924  74.2025 287.5191 14.32566487646382"
      },
      "geometry": {
        "type": "Point",
        "coordinates": [
          -136.7524383065354,
          -76.20870933738432
        ]
      }
    },
    {
      "type": "Feature",
      "properties": {
        "norad_id": 31917,
        "name": "FENGYUN 1C DEB",
        "group": "fengyun-1c-debris",
        "lat": 62.778828424751424,
        "lon": -25.002303893583466,
        "alt_km": 892.011960377441,
        "timestamp": "2025-12-25T03:55:56.642965+00:00",
        "meta_object_name": "FENGYUN 1C DEB",
        "meta_object_id": "1999-025CLU",
        "meta_epoch": "2025-12-24T18:26:23.436384",
        "meta_mean_motion": 14.37671565,
        "meta_eccentricity": 0.0188867,
        "meta_inclination": 98.3613,
        "meta_ra_of_asc_node": 351.2261,
        "meta_arg_of_pericenter": 257.1212,
        "meta_mean_anomaly": 280.5832,
        "meta_ephemeris_type": 0,
        "meta_classification_type": "U",
        "meta_norad_cat_id": 31917,
        "meta_element_set_no": 999,
        "meta_rev_at_epoch": 96594,
        "meta_bstar": 0.00052249,
        "meta_mean_motion_dot": 1.879e-05,
        "meta_mean_motion_ddot": 0,
        "tle_line1": "1 31917U 99025CLU 25358.76832681  .00001879  00000+0  52249-3 0  9999",
        "tle_line2": "2 31917  98.3613 351.2261 0188867 257.1212 280.5832 14.37671565965947"
      },
      "geometry": {
        "type": "Point",
        "coordinates": [
          -25.002303893583466,
          62.778828424751424
        ]
      }
    },
    {
      "type": "Feature",
      "properties": {
        "norad_id": 31919,
        "name": "FENGYUN 1C DEB",
        "group": "fengyun-1c-debris",
        "lat": -74.60171575548436,
        "lon": -73.12180433385528,
        "alt_km": 743.109342041259,
        "timestamp": "2025-12-25T03:55:56.642975+00:00",
        "meta_object_name": "FENGYUN 1C DEB",
        "meta_object_id": "1999-025CLW",
        "meta_epoch": "2025-12-24T04:18:52.922880",
        "meta_mean_motion": 14.45795434,
        "meta_eccentricity": 0.0102601,
        "meta_inclination": 99.1027,
        "meta_ra_of_asc_node": 141.4235,
        "meta_arg_of_pericenter": 172.641,
        "meta_mean_anomaly": 4.6485,
        "meta_ephemeris_type": 0,
        "meta_classification_type": "U",
        "meta_norad_cat_id": 31919,
        "meta_element_set_no": 999,
        "meta_rev_at_epoch": 97246,
        "meta_bstar": 0.00051849773,
        "meta_mean_motion_dot": 1.909e-05,
        "meta_mean_motion_ddot": 0,
        "tle_line1": "1 31919U 99025CLW 25358.17977920  .00001909  00000+0  51850-3 0  9993",
        "tle_line2": "2 31919  99.1027 141.4235 0102601 172.6410   4.6485 14.45795434972465"
      },
      "geometry": {
        "type": "Point",
        "coordinates": [
          -73.12180433385528,
          -74.60171575548436
        ]
      }
    },
    {
      "type": "Feature",
      "properties": {
        "norad_id": 31921,
        "name": "FENGYUN 1C DEB",
        "group": "fengyun-1c-debris",
        "lat": 27.233689513880147,
        "lon": -113.58028113657005,
        "alt_km": 1113.6910580044078,
        "timestamp": "2025-12-25T03:55:56.642988+00:00",
        "meta_object_name": "FENGYUN 1C DEB",
        "meta_object_id": "1999-025CLY",
        "meta_epoch": "2025-12-14T11:07:39.123264",
        "meta_mean_motion": 13.75272567,
        "meta_eccentricity": 0.02016687,
        "meta_inclination": 99.3382,
        "meta_ra_of_asc_node": 240.7973,
        "meta_arg_of_pericenter": 260.4861,
        "meta_mean_anomaly": 97.3447,
        "meta_ephemeris_type": 0,
        "meta_classification_type": "U",
        "meta_norad_cat_id": 31921,
        "meta_element_set_no": 999,
        "meta_rev_at_epoch": 92330,
        "meta_bstar": 0.001077077,
        "meta_mean_motion_dot": 1.153e-05,
        "meta_mean_motion_ddot": 0,
        "tle_line1": "1 31921U 99025CLY 25348.46364726  .00001153  00000+0  10771-2 0  9998",
        "tle_line2": "2 31921  99.3382 240.7973 0201668 260.4861  97.3447 13.75272567923300"
      },
      "geometry": {
        "type": "Point",
        "coordinates": [
          -113.58028113657005,
          27.233689513880147
        ]
      }
    }
  ]
}